satname,norad_id,inclination_deg,eccentricity,mean_motion_rev_per_day,perigee_km,apogee_km,l1,l2
STARLINK-1225,45187,53.1575,0.0001226,15.30775456,472.6573894387311,474.33741019356694,1 45187U 20012K   26105.51183023  .00024035  00000+0  80656-3 0  9998,2 45187  53.1575 228.6153 0001226  40.5424 319.5668 15.30775456340570
STARLINK-1230,45189,53.1595,0.0001278,15.30766072,472.64975888402114,474.4010437938032,1 45189U 20012M   26105.65194184  .00010270  00000+0  35223-3 0  9991,2 45189  53.1595 228.0199 0001278  38.3821 321.7271 15.30766072337824
STARLINK-1234,45190,53.041,0.0008925,15.67853106,359.02742344475064,371.06400458926964,1 45190U 20012N   26105.35798471  .00028206  00000+0  25508-3 0  9992,2 45190  53.0410 145.1651 0008925  43.1228 317.0485 15.67853106341627
STARLINK-1269,45197,53.158,8.33e-05,15.30848512,472.70869010233764,473.85013607675864,1 45197U 20012V   26105.64842596  .00010832  00000+0  36987-3 0  9998,2 45197  53.1580 227.8963 0000833  27.5896 332.5149 15.30848512340571
STARLINK-1154,45198,53.0448,0.0003251,15.52317059,407.75602710029307,412.1696496151926,1 45198U 20012W   26105.52256467  .00047236  00000+0  76583-3 0  9996,2 45198  53.0448 193.4654 0003251 286.0127  74.0523 15.52317059341009
STARLINK-1199,45201,53.1589,0.0001231,15.30806905,472.5601345600844,474.24698384576004,1 45201U 20012Z   26105.81383918  .00027897  00000+0  93286-3 0  9995,2 45201  53.1589 211.3753 0001231  42.1551 317.9544 15.30806905340841
STARLINK-1209,45206,53.0426,0.0012165,15.57869999,385.58461801512203,402.06079598225006,1 45206U 20012AE  26105.83441081  .00054648  00000+0  71912-3 0  9994,2 45206  53.0426 153.9590 0012165  28.9784 331.1900 15.57869999340691
STARLINK-1231,45212,53.0365,0.0003169,15.243898,490.44101578521804,494.79570053121915,1 45212U 20012AL  26105.50061300  .00021498  00000+0  87700-3 0  9996,2 45212  53.0365 206.2867 0003169 274.5229  85.5405 15.24389800340834
STARLINK-1271,45217,53.1591,0.0001695,15.30656724,472.6903008925965,475.0131250662971,1 45217U 20012AR  26105.61654420  .00008796  00000+0  30449-3 0  9998,2 45217  53.1591 212.4229 0001695  43.4744 316.6390 15.30656724340817
STARLINK-1191,45222,53.1569,0.0004588,15.3403655,460.644630257264,466.92277669477426,1 45222U 20012AW  26105.92069742  .00030851  00000+0  93090-3 0  9993,2 45222  53.1569 185.4164 0004588   6.1373 353.9685 15.34036550341223
STARLINK-1212,45223,53.0446,0.0005821,15.59666156,384.68358707574225,392.5614485063543,1 45223U 20012AX  26105.97966428  .00064642  00000+0  79475-3 0  9992,2 45223  53.0446 169.5689 0005821 332.2466  27.8234 15.59666156341448
STARLINK-1215,45225,53.1587,0.0002043,15.30739494,472.2048998682603,475.004521531253,1 45225U 20012AZ  26105.49156657 -.00054752  00000+0 -18192-2 0  9997,2 45225  53.1587 187.3390 0002043  60.1586 299.9618 15.30739494341114
STARLINK-1221,45227,53.0646,0.0003706,15.43245795,434.0118199015378,439.0628565210209,1 45227U 20012BB  26105.96997527  .00009584  00000+0  22130-3 0  9999,2 45227  53.0646  92.7653 0003706 103.1680 256.9739 15.43245795342468
STARLINK-1222,45228,53.054,3.37e-05,15.5180403,411.23005130418005,411.6876700651901,1 45228U 20012BC  26105.87288251  .00033117  00000+0  55018-3 0  9997,2 45228  53.0540 164.2204 0000337 243.3809 116.7165 15.51804030341395
STARLINK-1226,45229,53.1592,0.0002142,15.38785021,448.23847082591146,451.16351662242323,1 45229U 20012BD  26105.67792550  .00025634  00000+0  66658-3 0  9995,2 45229  53.1592 185.6553 0002142  27.2940 332.8177 15.38785021341093
STARLINK-1227,45230,53.1569,0.0003102,15.38828363,447.4548308487865,451.69074200028354,1 45230U 20012BE  26105.49670207  .00033767  00000+0  87262-3 0  9991,2 45230  53.1569 186.6690 0003102  18.1636 341.9479 15.38828363341183
STARLINK-1246,45235,53.1588,9.92e-05,15.30758838,472.86730048174377,474.2266745848692,1 45235U 20012BK  26105.33169303  .00021370  00000+0  71908-3 0  9996,2 45235  53.1588 229.0284 0000992  52.0799 308.0291 15.30758838340581
STARLINK-1270,45237,53.0451,0.0004606,15.53517197,403.3413944432468,409.5913710794466,1 45237U 20012BM  26105.46007072  .00042533  00000+0  66140-3 0  9992,2 45237  53.0451 171.0525 0004606 350.9252   9.1674 15.53517197341373
STARLINK-1279,45360,53.0396,0.0004662,15.65442047,368.82083904897536,375.11463670657304,1 45360U 20019A   26105.89261195  .00080169  00000+0  78468-3 0  9994,2 45360  53.0396 277.1348 0004662 278.7437  81.3049 15.65442047336481
STARLINK-1301,45361,53.0391,0.0002668,15.69780287,357.7280150471588,361.3232318230239,1 45361U 20019B   26105.77102591  .00041478  00000+0  34443-3 0  9991,2 45361  53.0391 281.4197 0002668 324.9953  35.0888 15.69780287336424
STARLINK-1262,45366,53.1565,0.0001067,15.29917669,475.326845903277,476.78953115650893,1 45366U 20019G   26105.85460158  .00024382  00000+0  83988-3 0  9994,2 45366  53.1565 352.6754 0001067 123.7537 236.3565 15.29917669335449
STARLINK-1273,45367,53.0492,0.0003751,15.50000081,414.1770794442564,419.2745855411931,1 45367U 20019H   26105.93818397  .00047910  00000+0  84322-3 0  9991,2 45367  53.0492 336.8555 0003751 161.4380 198.6765 15.50000081335669
STARLINK-1277,45369,53.0486,0.0005568,15.55624817,396.562717103704,404.11122571826763,1 45369U 20019K   26105.90952731  .00056445  00000+0  80896-3 0  9996,2 45369  53.0486 333.4137 0005568 163.7880 196.3309 15.55624817335710
STARLINK-1281,45370,53.16,8.35e-05,15.30792136,472.87552067824527,474.0197353111198,1 45370U 20019L   26104.98482544  .00029633  00000+0  99037-3 0  9991,2 45370  53.1600 356.6847 0000835 136.9063 223.2004 15.30792136335314
STARLINK-1300,45374,53.1594,6.04e-05,15.30889246,472.7440590528322,473.5716954740046,1 45374U 20019Q   26105.85559699  .00020174  00000+0  67689-3 0  9997,2 45374  53.1594 352.6420 0000604  64.1701 295.9363 15.30889246335445
STARLINK-1302,45375,53.0498,0.0002305,15.60469662,384.74025450043246,387.85865970715804,1 45375U 20019R   26105.86723912  .00035090  00000+0  42300-3 0  9996,2 45375  53.0498 331.4413 0002305 140.6276 219.4905 15.60469662335736
STARLINK-1304,45376,53.0486,0.0003151,15.54819784,400.5399112915984,404.81317998806026,1 45376U 20019S   26105.94182366  .00050528  00000+0  74744-3 0  9998,2 45376  53.0486 330.3248 0003151 164.5467 195.5640 15.54819784335754
STARLINK-1305,45377,53.0409,0.0006287,15.60660099,381.4967111377264,390.00162160332184,1 45377U 20019T   26105.94460455  .00070251  00000+0  83036-3 0  9996,2 45377  53.0409 311.6326 0006287 229.0331 131.0138 15.60660099336027
STARLINK-1319,45379,53.0429,0.0001848,15.69907338,357.9170508803336,360.4071566290813,1 45379U 20019V   26105.90439988  .00039799  00000+0  32905-3 0  9992,2 45379  53.0429 306.3590 0001848 192.7708 167.3261 15.69907338336092
STARLINK-1266,45383,53.0486,0.0004101,15.51507492,409.53919064753154,415.1087267258463,1 45383U 20019Z   26105.77116681  .00048650  00000+0  81145-3 0  9990,2 45383  53.0486 315.4369 0004101 167.6470 192.4640 15.51507492335948
STARLINK-1267,45384,53.0482,0.0001547,15.56732417,396.073245276084,398.1695102181584,1 45384U 20019AA  26105.94026111  .00062480  00000+0  85861-3 0  9994,2 45384  53.0482 307.3916 0001547 288.7242  71.3601 15.56732417336075
STARLINK-1272,45386,53.0423,0.0005028,15.63666547,373.67995453096864,380.4729972023006,1 45386U 20019AC  26105.76680634  .00076585  00000+0  80471-3 0  9995,2 45386  53.0423 289.2069 0005028 262.0282  98.0161 15.63666547336318
STARLINK-1274,45387,53.0242,0.000492,15.53374048,403.5449634777124,410.22142334803084,1 45387U 20019AD  26105.92098146  .00055830  00000+0  86885-3 0  9990,2 45387  53.0242 284.1222 0004920 307.5765  52.4797 15.53374048336392
STARLINK-1280,45388,53.0409,0.0001758,15.70504159,356.27101195570685,358.6392461482819,1 45388U 20019AE  26105.93811252  .00043926  00000+0  35363-3 0  9991,2 45388  53.0409 298.8430 0001758 241.3424 118.7416 15.70504159336182
STARLINK-1283,45389,53.0422,3.44e-05,15.65479655,371.6274309971568,372.0918307653619,1 45389U 20019AF  26105.89268122  .00032107  00000+0  31901-3 0  9992,2 45389  53.0422 288.1843 0000344 353.0267   7.0742 15.65479655336340
STARLINK-1284,45390,53.0457,0.0004392,15.58579765,388.79327480343454,394.73995814014233,1 45390U 20019AG  26105.95142940  .00056974  00000+0  73154-3 0  9994,2 45390  53.0457 310.7805 0004392 182.4907 177.6084 15.58579765336025
STARLINK-1297,45395,53.045,0.0004961,15.61829926,379.0173753193294,385.72515161834417,1 45395U 20019AM  26105.96042815  .00068801  00000+0  77793-3 0  9995,2 45395  53.0450 309.6983 0004961 185.9298 174.1657 15.61829926335220
STARLINK-1307,45397,53.054,0.0001694,15.53230736,406.151089687949,408.4499959274526,1 45397U 20019AP  26105.84938900  .00021990  00000+0  35005-3 0  9991,2 45397  53.0540 312.0292 0001694 110.8820 249.2371 15.53230736335820
STARLINK-1255,45399,53.0397,0.0002637,15.59088312,388.50955261677154,392.0792233307893,1 45399U 20019AR  26105.76307530  .00061910  00000+0  77897-3 0  9994,2 45399  53.0397 283.3439 0002637 278.9813  81.0900 15.59088312336201
STARLINK-1260,45404,53.1593,0.0001718,15.33103423,465.3837371126556,467.73557488365714,1 45404U 20019AW  26105.77010664  .00027929  00000+0  86944-3 0  9996,2 45404  53.1593 316.7210 0001718 224.2556 135.8308 15.33103423335653
STARLINK-1263,45405,53.1611,5.6e-05,15.30756439,473.17045146223336,473.9378408706034,1 45405U 20019AX  26105.84864363  .00033503  00000+0  11188-2 0  9990,2 45405  53.1611 316.6561 0000560 102.5226 257.5838 15.30756439335668
STARLINK-1265,45406,53.1592,0.000187,15.33187058,465.03082426031233,467.59064771357134,1 45406U 20019AY  26105.77273096  .00030448  00000+0  94402-3 0  9996,2 45406  53.1592 316.8063 0001870 208.3385 151.7515 15.33187058335656
STARLINK-1278,45408,53.041,0.0003443,15.63071142,376.4654201532221,381.1182413460765,1 45408U 20019BA  26105.95409126  .00069941  00000+0  75356-3 0  9990,2 45408  53.0410 309.0283 0003443 222.1979 137.8770 15.63071142335775
